STARLINK-1606
1 16144C 20057AD  21326.10834232  .00002538  00000-0  17004-3 0  3267
2 16144  53.0528 138.2583 0002038  79.4207 310.6493 15.06399836    13
